KUIPER-00132            
1 65763U 25217B   26063.16596024  .00044589  00000+0  11203-2 0  9992
2 65763  51.8620  30.3106 0006667 315.5732  44.4720 15.39515128 24574
KUIPER-00133            
1 65764U 25217C   26063.23621287  .00005986  00000+0  81315-3 0  9991
2 65764  51.9037  77.2335 0002112  14.0409 346.0612 14.79953561 23935
KUIPER-00139            
1 65765U 25217D   26063.38548925  .00015260  00000+0  11756-2 0  9992
2 65765  51.8863  58.0808 0007124 302.6828  57.3456 15.01785245 24211
KUIPER-00142            
1 65766U 25217E   26063.42400231  .00000617  00000+0  10996-3 0  9991
2 65766  51.8996  58.8754 0000665  84.4490 275.6549 14.79930288 24200
KUIPER-00145            
1 65767U 25217F   26063.35367903  .00006600  00000+0  89383-3 0  9996
2 65767  51.8981  61.6991 0000680  82.0877 278.0163 14.79936126 24150
KUIPER-00147            
1 65768U 25217G   26063.18224314  .00000641  00000+0  11301-3 0  9990
2 65768  51.9003  64.9535 0000891 118.2829 241.8224 14.79959043 24092
KUIPER-00148            
1 65769U 25217H   26063.37615797  .00017920  00000+0  11171-2 0  9993
2 65769  51.8786  49.2745 0008590 336.7362  23.3223 15.09570829 24336
KUIPER-00150            
1 65770U 25217J   26063.71152756  .00005655  00000+0  76897-3 0  9993
2 65770  51.9004  72.6164 0000714  49.9600 310.1425 14.80000789 24034
KUIPER-00151            
1 65771U 25217K   26063.31457781  .00006931  00000+0  93651-3 0  9991
2 65771  51.9008  66.8695 0001029  49.5936 310.5116 14.79967528 24088
KUIPER-00152            
1 65772U 25217L   26063.36182729  .00005189  00000+0  70842-3 0  9995
2 65772  51.9002  54.1533 0000783 132.1888 227.9141 14.79979445 24265
KUIPER-00153            
1 65773U 25217M   26063.31514453  .00021108  00000+0  11895-2 0  9995
2 65773  51.8776  52.5687 0010496 308.9568  51.0473 15.13107826 24286
KUIPER-00155            
1 65774U 25217N   26063.21870277  .00027177  00000+0  11502-2 0  9991
2 65774  51.8788  37.3958 0005468 313.3236  46.7289 15.22979615 24488
KUIPER-00156            
1 65775U 25217P   26063.67110153 -.00002883  00000+0 -34929-3 0  9990
2 65775  51.9045  47.8136 0000737 102.8880 257.2165 14.79937184 24376
KUIPER-00158            
1 65776U 25217Q   26063.74202306  .00006804  00000+0  90886-3 0  9990
2 65776  51.8966  67.3615 0001045  43.5927 316.5118 14.80481124 24112
KUIPER-00163            
1 65777U 25217R   26063.83336806  .00119566  00000+0  11172-1 0  9993
2 65777  51.8969  68.8803 0001405 351.4797  90.3975 14.93137614  5435
KUIPER-00165            
1 65778U 25217S   26063.39019106  .00005273  00000+0  71895-3 0  9995
2 65778  51.9012  59.0309 0000894 110.3797 249.7261 14.80003991 24190
KUIPER-00166            
1 65779U 25217T   26063.36998563  .00008589  00000+0  11529-2 0  9996
2 65779  51.9027  46.6429 0000779 112.6031 247.5013 14.79982865 24364
